<?xml version="1.0" encoding="UTF-8"?>
<gpx xmlns="http://www.topografix.com/GPX/1/1" xmlns:gpxtpx="http://www.garmin.com/xmlschemas/TrackPointExtension/v1" xmlns:xsi="http://www.w3.org/2001/XMLSchema-instance" xsi:schemaLocation="http://www.topografix.com/GPX/1/1 http://www.topografix.com/GPX/1/1/gpx.xsd" version="1.1" creator="gpx.py -- https://github.com/tkrajina/gpxpy">
  <trk>
    <name>gpx from keep</name>
    <type>Walk</type>
    <trkseg>
      <trkpt lat="30.693178780296048" lon="111.30705401991644">
        <ele>81.6</ele>
        <time>2023-11-30T11:15:01Z</time>
      </trkpt>
      <trkpt lat="30.69314171380995" lon="111.30709989518802">
        <ele>79.80000000000001</ele>
        <time>2023-11-30T11:15:22Z</time>
      </trkpt>
      <trkpt lat="30.69319240156567" lon="111.3072574511739">
        <ele>77.80000000000001</ele>
        <time>2023-11-30T11:15:37Z</time>
      </trkpt>
      <trkpt lat="30.693282114550115" lon="111.3073910703241">
        <ele>75.19999999999999</ele>
        <time>2023-11-30T11:15:49Z</time>
      </trkpt>
      <trkpt lat="30.693310830395827" lon="111.30753865552282">
        <ele>72.0</ele>
        <time>2023-11-30T11:16:04Z</time>
      </trkpt>
      <trkpt lat="30.69348225353867" lon="111.30780888502969">
        <ele>76.9</ele>
        <time>2023-11-30T11:16:28Z</time>
      </trkpt>
      <trkpt lat="30.693537060939533" lon="111.30789962634849">
        <ele>79.80000000000001</ele>
        <time>2023-11-30T11:16:34Z</time>
      </trkpt>
      <trkpt lat="30.69361296287788" lon="111.30793352487649">
        <ele>82.19999999999999</ele>
        <time>2023-11-30T11:16:40Z</time>
      </trkpt>
      <trkpt lat="30.693873183179036" lon="111.30774702415233">
        <ele>83.30000000000001</ele>
        <time>2023-11-30T11:16:52Z</time>
      </trkpt>
      <trkpt lat="30.693932223159678" lon="111.3077101222379">
        <ele>83.80000000000001</ele>
        <time>2023-11-30T11:16:55Z</time>
      </trkpt>
      <trkpt lat="30.69400021861875" lon="111.30769515818444">
        <ele>82.69999999999999</ele>
        <time>2023-11-30T11:16:58Z</time>
      </trkpt>
      <trkpt lat="30.69415329849787" lon="111.30761237635556">
        <ele>81.5</ele>
        <time>2023-11-30T11:17:04Z</time>
      </trkpt>
      <trkpt lat="30.694248277558216" lon="111.30759940437463">
        <ele>81.5</ele>
        <time>2023-11-30T11:17:07Z</time>
      </trkpt>
      <trkpt lat="30.69444308876235" lon="111.30765223975713">
        <ele>81.4</ele>
        <time>2023-11-30T11:17:13Z</time>
      </trkpt>
      <trkpt lat="30.694499994198715" lon="111.30768913166112">
        <ele>81.80000000000001</ele>
        <time>2023-11-30T11:17:16Z</time>
      </trkpt>
      <trkpt lat="30.694673873790894" lon="111.30771005804804">
        <ele>82.69999999999999</ele>
        <time>2023-11-30T11:17:25Z</time>
      </trkpt>
      <trkpt lat="30.69473777406322" lon="111.30774794653169">
        <ele>83.19999999999999</ele>
        <time>2023-11-30T11:17:28Z</time>
      </trkpt>
      <trkpt lat="30.694840870146695" lon="111.30766915792832">
        <ele>82.19999999999999</ele>
        <time>2023-11-30T11:17:34Z</time>
      </trkpt>
      <trkpt lat="30.694918009502583" lon="111.30757341888375">
        <ele>83.80000000000001</ele>
        <time>2023-11-30T11:17:37Z</time>
      </trkpt>
      <trkpt lat="30.695067962571013" lon="111.30756044213905">
        <ele>86.5</ele>
        <time>2023-11-30T11:17:40Z</time>
      </trkpt>
      <trkpt lat="30.695206838499107" lon="111.30759234092565">
        <ele>88.9</ele>
        <time>2023-11-30T11:17:43Z</time>
      </trkpt>
      <trkpt lat="30.695245770711818" lon="111.30761926228925">
        <ele>89.4</ele>
        <time>2023-11-30T11:17:46Z</time>
      </trkpt>
      <trkpt lat="30.695292613122728" lon="111.30769305190407">
        <ele>88.19999999999999</ele>
        <time>2023-11-30T11:17:52Z</time>
      </trkpt>
      <trkpt lat="30.69530839499877" lon="111.30780772976115">
        <ele>84.1</ele>
        <time>2023-11-30T11:18:01Z</time>
      </trkpt>
      <trkpt lat="30.695300224704518" lon="111.30790246536256">
        <ele>78.6</ele>
        <time>2023-11-30T11:18:07Z</time>
      </trkpt>
      <trkpt lat="30.695310091663615" lon="111.30797226910056">
        <ele>76.9</ele>
        <time>2023-11-30T11:18:10Z</time>
      </trkpt>
      <trkpt lat="30.69530000285225" lon="111.30802312756977">
        <ele>74.5</ele>
        <time>2023-11-30T11:18:19Z</time>
      </trkpt>
      <trkpt lat="30.695327857558027" lon="111.30809492406675">
        <ele>73.9</ele>
        <time>2023-11-30T11:18:28Z</time>
      </trkpt>
      <trkpt lat="30.695338369399185" lon="111.30835718811346">
        <ele>66.19999999999999</ele>
        <time>2023-11-30T11:18:43Z</time>
      </trkpt>
      <trkpt lat="30.695355192255853" lon="111.30844892934843">
        <ele>63.199999999999996</ele>
        <time>2023-11-30T11:18:49Z</time>
      </trkpt>
      <trkpt lat="30.695347096718006" lon="111.30850277897662">
        <ele>61.699999999999996</ele>
        <time>2023-11-30T11:18:52Z</time>
      </trkpt>
      <trkpt lat="30.695308019450188" lon="111.30855463685204">
        <ele>60.4</ele>
        <time>2023-11-30T11:18:55Z</time>
      </trkpt>
      <trkpt lat="30.695257995189333" lon="111.30858056841807">
        <ele>59.800000000000004</ele>
        <time>2023-11-30T11:18:58Z</time>
      </trkpt>
      <trkpt lat="30.695178023713947" lon="111.30858556134784">
        <ele>59.199999999999996</ele>
        <time>2023-11-30T11:19:04Z</time>
      </trkpt>
      <trkpt lat="30.69510510045778" lon="111.30856263203206">
        <ele>60.6</ele>
        <time>2023-11-30T11:19:10Z</time>
      </trkpt>
      <trkpt lat="30.695135159905448" lon="111.30852274136458">
        <ele>59.50000000000001</ele>
        <time>2023-11-30T11:19:25Z</time>
      </trkpt>
      <trkpt lat="30.695139955127487" lon="111.30863243308582">
        <ele>59.4</ele>
        <time>2023-11-30T11:19:28Z</time>
      </trkpt>
      <trkpt lat="30.695111833925147" lon="111.30870523113806">
        <ele>59.300000000000004</ele>
        <time>2023-11-30T11:19:31Z</time>
      </trkpt>
      <trkpt lat="30.695027971114303" lon="111.30865238679208">
        <ele>59.199999999999996</ele>
        <time>2023-11-30T11:19:43Z</time>
      </trkpt>
      <trkpt lat="30.69513721782416" lon="111.30849083072175">
        <ele>59.4</ele>
        <time>2023-11-30T11:19:49Z</time>
      </trkpt>
      <trkpt lat="30.695242956254543" lon="111.30860549974679">
        <ele>64.1</ele>
        <time>2023-11-30T11:19:52Z</time>
      </trkpt>
      <trkpt lat="30.695120225839702" lon="111.30849083219286">
        <ele>67.1</ele>
        <time>2023-11-30T11:19:58Z</time>
      </trkpt>
      <trkpt lat="30.695037505821848" lon="111.30836020577101">
        <ele>70.5</ele>
        <time>2023-11-30T11:20:04Z</time>
      </trkpt>
      <trkpt lat="30.694990509599137" lon="111.30837018187557">
        <ele>72.1</ele>
        <time>2023-11-30T11:20:07Z</time>
      </trkpt>
      <trkpt lat="30.694942467889934" lon="111.30840508815197">
        <ele>74.19999999999999</ele>
        <time>2023-11-30T11:20:13Z</time>
      </trkpt>
      <trkpt lat="30.69488507165565" lon="111.30863444955494">
        <ele>76.19999999999999</ele>
        <time>2023-11-30T11:20:19Z</time>
      </trkpt>
      <trkpt lat="30.694926926661726" lon="111.30870225554818">
        <ele>76.9</ele>
        <time>2023-11-30T11:20:22Z</time>
      </trkpt>
      <trkpt lat="30.694926926661726" lon="111.30870225554818">
        <ele>76.9</ele>
        <time>2023-11-30T11:20:31Z</time>
      </trkpt>
    </trkseg>
  </trk>
</gpx>